{"type": "FeatureCollection", "features": [ {"type": "Feature", "properties": {"norad_id": 39634, "name": "SENTINEL-1A", "group": "resource", "lat": 3.354656988766756, "lon": 2.0818299956721438, "alt_km": 698.1282250106497, "timestamp": "2025-12-23T11:34:47.839025+00:00", "meta": {"OBJECT_NAME": "SENTINEL-1A", "OBJECT_ID": "2014-016A", "EPOCH": "2025-12-23T03:20:09.269952", "MEAN_MOTION": 14.59201145, "ECCENTRICITY": 0.0001268, "INCLINATION": 98.1796, "RA_OF_ASC_NODE": 2.2265, "ARG_OF_PERICENTER": 84.1477, "MEAN_ANOMALY": 275.9867, "EPHEMERIS_TYPE": 0, "CLASSIFICATION_TYPE": "U", "NORAD_CAT_ID": 39634, "ELEMENT_SET_NO": 999, "REV_AT_EPOCH": 62434, "BSTAR": 5.6684e-06, "MEAN_MOTION_DOT": -1.9e-07, "MEAN_MOTION_DDOT": 0}, "tle": {"line1": "1 39634U 14016A   25357.13899618 -.00000019  00000+0  56684-5 0  9998", "line2": "2 39634  98.1796   2.2265 0001268  84.1477 275.9867 14.59201145624347"}}, "geometry": {"type": "Point", "coordinates": [2.0818299956721438, 3.354656988766756]}}, {"type": "Feature", "properties": {"norad_id": 39731, "name": "KAZEOSAT 1", "group": "resource", "lat": 35.86337434837827, "lon": 63.05953115963493, "alt_km": 748.7773938806449, "timestamp": "2025-12-23T11:34:47.839034+00:00", "meta": {"OBJECT_NAME": "KAZEOSAT 1", "OBJECT_ID": "2014-024A", "EPOCH": "2025-12-23T04:45:04.202784", "MEAN_MOTION": 14.42067815, "ECCENTRICITY": 0.0001206, "INCLINATION": 98.3424, "RA_OF_ASC_NODE": 68.8706, "ARG_OF_PERICENTER": 98.6343, "MEAN_ANOMALY": 261.4983, "EPHEMERIS_TYPE": 0, "CLASSIFICATION_TYPE": "U", "NORAD_CAT_ID": 39731, "ELEMENT_SET_NO": 999, "REV_AT_EPOCH": 61319, "BSTAR": 5.1167e-05, "MEAN_MOTION_DOT": 1.25e-06, "MEAN_MOTION_DDOT": 0}, "tle": {"line1": "1 39731U 14024A   25357.19796531  .00000125  00000+0  51167-4 0  9998", "line2": "2 39731  98.3424  68.8706 0001206  98.6343 261.4983 14.42067815613193"}}, "geometry": {"type": "Point", "coordinates": [63.05953115963493, 35.86337434837827]}}, {"type": "Feature", "properties": {"norad_id": 39766, "name": "ALOS-2", "group": "resource", "lat": -73.37954088449975, "lon": 119.9838444298913, "alt_km": 639.2574347400741, "timestamp": "2025-12-23T11:34:47.839043+00:00", "meta": {"OBJECT_NAME": "ALOS-2", "OBJECT_ID": "2014-029A", "EPOCH": "2025-12-23T05:25:38.519328", "MEAN_MOTION": 14.79468038, "ECCENTRICITY": 0.0001354, "INCLINATION": 97.9224, "RA_OF_ASC_NODE": 91.9233, "ARG_OF_PERICENTER": 100.447, "MEAN_ANOMALY": 259.6894, "EPHEMERIS_TYPE": 0, "CLASSIFICATION_TYPE": "U", "NORAD_CAT_ID": 39766, "ELEMENT_SET_NO": 999, "REV_AT_EPOCH": 62556, "BSTAR": 0.00033307, "MEAN_MOTION_DOT": 2.437e-05, "MEAN_MOTION_DDOT": 0}, "tle": {"line1": "1 39766U 14029A   25357.22614027  .00002437  00000+0  33307-3 0  9997", "line2": "2 39766  97.9224  91.9233 0001354 100.4470 259.6894 14.79468038625569"}}, "geometry": {"type": "Point", "coordinates": [119.9838444298913, -73.37954088449975]}}, {"type": "Feature", "properties": {"norad_id": 40010, "name": "KAZEOSAT 2", "group": "resource", "lat": 54.05727478222976, "lon": -169.29776582961222, "alt_km": 610.3838074952173, "timestamp": "2025-12-23T11:34:47.839052+00:00", "meta": {"OBJECT_NAME": "KAZEOSAT 2", "OBJECT_ID": "2014-033A", "EPOCH": "2025-12-23T03:14:56.996160", "MEAN_MOTION": 14.85185552, "ECCENTRICITY": 0.0008545, "INCLINATION": 97.5493, "RA_OF_ASC_NODE": 200.9129, "ARG_OF_PERICENTER": 170.3452, "MEAN_ANOMALY": 189.793, "EPHEMERIS_TYPE": 0, "CLASSIFICATION_TYPE": "U", "NORAD_CAT_ID": 40010, "ELEMENT_SET_NO": 999, "REV_AT_EPOCH": 62282, "BSTAR": 0.00015558, "MEAN_MOTION_DOT": 1.283e-05, "MEAN_MOTION_DDOT": 0}, "tle": {"line1": "1 40010U 14033A   25357.13538190  .00001283  00000+0  15558-3 0  9998", "line2": "2 40010  97.5493 200.9129 0008545 170.3452 189.7930 14.85185552622822"}}, "geometry": {"type": "Point", "coordinates": [-169.29776582961222, 54.05727478222976]}}, {"type": "Feature", "properties": {"norad_id": 40011, "name": "HODOYOSHI-4", "group": "resource", "lat": -52.10547268774866, "lon": -3.962691474041771, "alt_km": 606.4323891798758, "timestamp": "2025-12-23T11:34:47.839061+00:00", "meta": {"OBJECT_NAME": "HODOYOSHI-4", "OBJECT_ID": "2014-033B", "EPOCH": "2025-12-23T04:04:51.005856", "MEAN_MOTION": 14.87518588, "ECCENTRICITY": 0.0023962, "INCLINATION": 97.5408, "RA_OF_ASC_NODE": 185.5395, "ARG_OF_PERICENTER": 165.4814, "MEAN_ANOMALY": 194.7096, "EPHEMERIS_TYPE": 0, "CLASSIFICATION_TYPE": "U", "NORAD_CAT_ID": 40011, "ELEMENT_SET_NO": 999, "REV_AT_EPOCH": 62263, "BSTAR": 0.00021838, "MEAN_MOTION_DOT": 1.939e-05, "MEAN_MOTION_DDOT": 0}, "tle": {"line1": "1 40011U 14033B   25357.17003479  .00001939  00000+0  21838-3 0  9996", "line2": "2 40011  97.5408 185.5395 0023962 165.4814 194.7096 14.87518588622638"}}, "geometry": {"type": "Point", "coordinates": [-3.962691474041771, -52.10547268774866]}}, {"type": "Feature", "properties": {"norad_id": 40013, "name": "DEIMOS-2", "group": "resource", "lat": -61.04949228559234, "lon": 38.94931600696059, "alt_km": 596.5252210044855, "timestamp": "2025-12-23T11:34:47.839070+00:00", "meta": {"OBJECT_NAME": "DEIMOS-2", "OBJECT_ID": "2014-033D", "EPOCH": "2025-12-23T04:03:56.844288", "MEAN_MOTION": 14.93016626, "ECCENTRICITY": 0.0001487, "INCLINATION": 97.6063, "RA_OF_ASC_NODE": 232.6258, "ARG_OF_PERICENTER": 101.3404, "MEAN_ANOMALY": 258.7983, "EPHEMERIS_TYPE": 0, "CLASSIFICATION_TYPE": "U", "NORAD_CAT_ID": 40013, "ELEMENT_SET_NO": 999, "REV_AT_EPOCH": 61145, "BSTAR": 0.00018347, "MEAN_MOTION_DOT": 1.853e-05, "MEAN_MOTION_DDOT": 0}, "tle": {"line1": "1 40013U 14033D   25357.16940792  .00001853  00000+0  18347-3 0  9991", "line2": "2 40013  97.6063 232.6258 0001487 101.3404 258.7983 14.93016626611459"}}, "geometry": {"type": "Point", "coordinates": [38.94931600696059, -61.04949228559234]}}, {"type": "Feature", "properties": {"norad_id": 40015, "name": "HODOYOSHI-3", "group": "resource", "lat": 53.61780913533878, "lon": 152.38107141142223, "alt_km": 629.9066177375662, "timestamp": "2025-12-23T11:34:47.839079+00:00", "meta": {"OBJECT_NAME": "HODOYOSHI-3", "OBJECT_ID": "2014-033F", "EPOCH": "2025-12-22T22:23:45.491424", "MEAN_MOTION": 14.84839915, "ECCENTRICITY": 0.0032382, "INCLINATION": 97.6205, "RA_OF_ASC_NODE": 162.3253, "ARG_OF_PERICENTER": 213.2744, "MEAN_ANOMALY": 146.6436, "EPHEMERIS_TYPE": 0, "CLASSIFICATION_TYPE": "U", "NORAD_CAT_ID": 40015, "ELEMENT_SET_NO": 999, "REV_AT_EPOCH": 62146, "BSTAR": 0.00018685, "MEAN_MOTION_DOT": 1.549e-05, "MEAN_MOTION_DDOT": 0}, "tle": {"line1": "1 40015U 14033F   25356.93316541  .00001549  00000+0  18685-3 0  9993", "line2": "2 40015  97.6205 162.3253 0032382 213.2744 146.6436 14.84839915621465"}}, "geometry": {"type": "Point", "coordinates": [152.38107141142223, 53.61780913533878]}}, {"type": "Feature", "properties": {"norad_id": 40053, "name": "SPOT 7", "group": "resource", "lat": -70.74735969161155, "lon": 83.33995783290594, "alt_km": 699.0386476724871, "timestamp": "2025-12-23T11:34:47.839088+00:00", "meta": {"OBJECT_NAME": "SPOT 7", "OBJECT_ID": "2014-034A", "EPOCH": "2025-12-23T03:41:29.213376", "MEAN_MOTION": 14.60745921, "ECCENTRICITY": 0.0001547, "INCLINATION": 98.0894, "RA_OF_ASC_NODE": 58.989, "ARG_OF_PERICENTER": 83.3854, "MEAN_ANOMALY": 276.7523, "EPHEMERIS_TYPE": 0, "CLASSIFICATION_TYPE": "U", "NORAD_CAT_ID": 40053, "ELEMENT_SET_NO": 999, "REV_AT_EPOCH": 61143, "BSTAR": 0.00010639, "MEAN_MOTION_DOT": 4.73e-06, "MEAN_MOTION_DDOT": 0}, "tle": {"line1": "1 40053U 14034A   25357.15381034  .00000473  00000+0  10639-3 0  9996", "line2": "2 40053  98.0894  58.9890 0001547  83.3854 276.7523 14.60745921611435"}}, "geometry": {"type": "Point", "coordinates": [83.33995783290594, -70.74735969161155]}}, {"type": "Feature", "properties": {"norad_id": 40072, "name": "SKYSAT-B", "group": "resource", "lat": 9.398486760102983, "lon": 123.15177607665508, "alt_km": 604.8971951095427, "timestamp": "2025-12-23T11:34:47.839097+00:00", "meta": {"OBJECT_NAME": "SKYSAT-B", "OBJECT_ID": "2014-037D", "EPOCH": "2025-12-22T20:17:08.751552", "MEAN_MOTION": 14.87361186, "ECCENTRICITY": 0.00067533, "INCLINATION": 98.3626, "RA_OF_ASC_NODE": 301.0856, "ARG_OF_PERICENTER": 121.7869, "MEAN_ANOMALY": 238.4005, "EPHEMERIS_TYPE": 0, "CLASSIFICATION_TYPE": "U", "NORAD_CAT_ID": 40072, "ELEMENT_SET_NO": 999, "REV_AT_EPOCH": 61974, "BSTAR": 0.0001702773, "MEAN_MOTION_DOT": 1.478e-05, "MEAN_MOTION_DDOT": 0}, "tle": {"line1": "1 40072U 14037D   25356.84524018  .00001478  00000+0  17028-3 0  9991", "line2": "2 40072  98.3626 301.0856 0006753 121.7869 238.4005 14.87361186619741"}}, "geometry": {"type": "Point", "coordinates": [123.15177607665508, 9.398486760102983]}}, {"type": "Feature", "properties": {"norad_id": 40115, "name": "WORLDVIEW-3 (WV-3)", "group": "resource", "lat": -26.93016035223718, "lon": 73.66375680479409, "alt_km": 621.6447870425218, "timestamp": "2025-12-23T11:34:47.839106+00:00", "meta": {"OBJECT_NAME": "WORLDVIEW-3 (WV-3)", "OBJECT_ID": "2014-048A", "EPOCH": "2025-12-23T01:59:49.992000", "MEAN_MOTION": 14.84670573, "ECCENTRICITY": 0.0001935, "INCLINATION": 97.8766, "RA_OF_ASC_NODE": 69.2366, "ARG_OF_PERICENTER": 132.1702, "MEAN_ANOMALY": 227.9677, "EPHEMERIS_TYPE": 0, "CLASSIFICATION_TYPE": "U", "NORAD_CAT_ID": 40115, "ELEMENT_SET_NO": 999, "REV_AT_EPOCH": 61577, "BSTAR": 0.00012533, "MEAN_MOTION_DOT": 1.007e-05, "MEAN_MOTION_DDOT": 0}, "tle": {"line1": "1 40115U 14048A   25357.08321750  .00001007  00000+0  12533-3 0  9990", "line2": "2 40115  97.8766  69.2366 0001935 132.1702 227.9677 14.84670573615773"}}, "geometry": {"type": "Point", "coordinates": [73.66375680479409, -26.93016035223718]}}]}